     3.02           N: GNSS NAV DATA    G: GPS              RINEX VERSION / TYPE
Spider v7.4.1.8151  SMO                 20200729 000830 UTC PGM / RUN BY / DATE
GPSA   4.6566D-09  1.4901D-08 -5.9605D-08 -5.9605D-08       IONOSPHERIC CORR
GPSB   7.9872D+04  6.5536D+04 -6.5536D+04 -3.9322D+05       IONOSPHERIC CORR
GPUT -4.6566128731D-09-1.421085472D-14 503808 2116          TIME SYSTEM CORR
    18    18  1929     7                                    LEAP SECONDS
                                                            END OF HEADER
G20 2020 07 28 12 00 00 5.271905101836D-04-1.136868377216D-13 0.000000000000D+00
     5.000000000000D+00-5.812500000000D+00 5.144499937160D-09-8.104400527555D-01
    -2.551823854446D-07 5.379538750276D-03 7.713213562965D-06 5.153653133392D+03
     2.160000000000D+05-7.450580596924D-08 2.851863005118D+00-1.788139343262D-07
     9.350024421019D-01 2.209375000000D+02 2.684080450770D+00-8.341419110991D-09
     3.264421788440D-10 1.000000000000D+00 2.116000000000D+03 0.000000000000D+00
     2.000000000000D+00 0.000000000000D+00-8.847564458847D-09 5.000000000000D+00
     2.087400000000D+05                   
G05 2020 07 28 11 59 44-1.759780570865D-05-7.958078640513D-13 0.000000000000D+00
     8.000000000000D+00-7.656250000000D+00 4.818415000329D-09 2.631085061311D+00
    -5.103647708893D-07 6.037937593646D-03 6.996095180511D-06 5.153702447891D+03
     2.159840000000D+05 4.842877388000D-08 2.954997492078D+00-7.264316082001D-08
     9.535296427256D-01 2.418125000000D+02 8.332054192187D-01-8.158196784791D-09
     2.592965286929D-10 1.000000000000D+00 2.116000000000D+03 0.000000000000D+00
     2.000000000000D+00 0.000000000000D+00-1.117587089539D-08 8.000000000000D+00
     2.087100000000D+05                   
G21 2020 07 28 12 00 00 2.902420237660D-05 4.433786671143D-12 0.000000000000D+00
     8.400000000000D+01-6.621875000000D+01 4.334109071635D-09-2.947209037646D+00
    -3.250315785408D-06 2.379649807699D-02 9.549781680107D-06 5.155097177505D+03
     2.160000000000D+05 2.663582563400D-07 1.872008602135D+00 2.998858690262D-07
     9.537130282843D-01 1.837500000000D+02-1.308419954840D+00-7.635675203232D-09
     8.786080196721D-11 1.000000000000D+00 2.116000000000D+03 0.000000000000D+00
     2.000000000000D+00 0.000000000000D+00-1.024454832077D-08 8.400000000000D+01
     2.087400000000D+05                   
G10 2020 07 28 11 59 44-4.121144302189D-04-1.045918907039D-11 0.000000000000D+00
     1.400000000000D+01-7.718750000000D+00 4.425898758598D-09-2.341497770861D+00
    -3.799796104431D-07 5.736451246776D-03 7.528811693192D-06 5.153661830902D+03
     2.159840000000D+05-3.166496753693D-08 2.984714139084D+00-6.332993507385D-08
     9.665602680634D-01 2.369062500000D+02-2.647922714438D+00-7.899615184215D-09
     3.375140722461D-10 1.000000000000D+00 2.116000000000D+03 0.000000000000D+00
     2.000000000000D+00 0.000000000000D+00 2.328306436539D-09 1.400000000000D+01
     2.087100000000D+05                   
G12 2020 07 28 12 00 00 8.794851601124D-05-4.888534022029D-12 0.000000000000D+00
     7.200000000000D+01 6.700000000000D+01 4.466257585989D-09-1.718453133842D+00
     3.643333911896D-06 7.950638188049D-03 4.423782229424D-06 5.153655296326D+03
     2.160000000000D+05 1.415610313416D-07-8.399692765491D-02 2.235174179077D-08
     9.777660332971D-01 3.028750000000D+02 1.166993619340D+00-8.154268371641D-09
     2.003654880900D-10 1.000000000000D+00 2.116000000000D+03 0.000000000000D+00
     2.000000000000D+00 0.000000000000D+00-1.210719347000D-08 7.200000000000D+01
     2.087400000000D+05                   
G32 2020 07 28 12 00 00 3.241105005145D-04 5.911715561524D-12 0.000000000000D+00
     7.600000000000D+01-2.581250000000D+01 4.685909438251D-09 2.540227893431D+00
    -1.240521669388D-06 4.087558481842D-03 8.028000593185D-06 5.153733011246D+03
     2.160000000000D+05 7.450580596924D-09-2.256256782060D+00-1.136213541031D-07
     9.568080743254D-01 2.204375000000D+02-2.432054790375D+00-8.065693002379D-09
    -1.878649735776D-10 1.000000000000D+00 2.116000000000D+03 0.000000000000D+00
     2.000000000000D+00 0.000000000000D+00 4.656612873077D-10 7.600000000000D+01
     2.087400000000D+05                   
G25 2020 07 28 12 00 00 2.847705036402D-05 4.547473508865D-12 0.000000000000D+00
     8.600000000000D+01 8.156250000000D+01 4.726625313367D-09-1.934831569501D+00
     4.157423973083D-06 9.090797742829D-03 4.630535840988D-06 5.153759330750D+03
     2.160000000000D+05 1.452863216400D-07-1.536692774679D-01-8.568167686462D-08
     9.650735717137D-01 2.916250000000D+02 9.383595816202D-01-8.234986026423D-09
     2.578678937049D-10 1.000000000000D+00 2.116000000000D+03 0.000000000000D+00
     2.000000000000D+00 0.000000000000D+00 5.587935447693D-09 8.600000000000D+01
     2.087400000000D+05                   
G15 2020 07 28 14 00 00-2.144663594663D-04 2.614797267597D-12 0.000000000000D+00
     9.000000000000D+00-2.856250000000D+01 5.366652011674D-09 2.064131009010D+00
    -1.680105924606D-06 1.250518602319D-02 7.599592208862D-06 5.153720560074D+03
     2.232000000000D+05-1.583248376846D-07-2.356120536758D+00-2.179294824600D-07
     9.283332063129D-01 2.181250000000D+02 8.963002625950D-01-8.408921559067D-09
    -2.071514904056D-10 1.000000000000D+00 2.116000000000D+03 0.000000000000D+00
     2.000000000000D+00 0.000000000000D+00-1.071020960808D-08 9.000000000000D+00
     2.159400000000D+05                   
G25 2020 07 28 14 00 00 2.850964665413D-05 4.547473508865D-12 0.000000000000D+00
     8.700000000000D+01 7.262500000000D+01 4.687695120964D-09-8.845695131165D-01
     4.047527909279D-06 9.090761886910D-03 4.742294549942D-06 5.153761569977D+03
     2.232000000000D+05 9.126961231232D-08-1.537286148881D-01 1.061707735062D-07
     9.650744845746D-01 2.937812500000D+02 9.382261386218D-01-8.408564511342D-09
     1.921508646641D-10 1.000000000000D+00 2.116000000000D+03 0.000000000000D+00
     2.000000000000D+00 0.000000000000D+00 5.587935447693D-09 8.700000000000D+01
     2.159400000000D+05                   
G29 2020 07 28 14 00 00-1.602815464139D-04-8.299139153678D-12 0.000000000000D+00
     3.600000000000D+01-5.415625000000D+01 4.240890749685D-09 3.129637678269D+00
    -2.728775143623D-06 1.634578919038D-03 5.574896931648D-06 5.153775306702D+03
     2.232000000000D+05 2.048909664154D-08 9.621200234980D-01 1.490116119385D-07
     9.853969636360D-01 2.856562500000D+02 2.118560116704D+00-8.094622749866D-09
    -1.375057290254D-10 1.000000000000D+00 2.116000000000D+03 0.000000000000D+00
     2.000000000000D+00 0.000000000000D+00-9.778887033463D-09 3.600000000000D+01
     2.159400000000D+05                   
G21 2020 07 28 14 00 00 2.905679866672D-05 4.433786671143D-12 0.000000000000D+00
     8.700000000000D+01-5.381250000000D+01 4.475900539092D-09-1.897964257921D+00
    -2.481043338776D-06 2.379778912291D-02 1.019798219204D-05 5.155093524933D+03
     2.232000000000D+05 5.960464477539D-08 1.871953782206D+00 6.072223186493D-07
     9.537127751995D-01 1.735000000000D+02-1.308354190821D+00-7.852826833243D-09
     4.321608695901D-11 1.000000000000D+00 2.116000000000D+03 0.000000000000D+00
     2.000000000000D+00 0.000000000000D+00-1.024454832077D-08 8.700000000000D+01
     2.159400000000D+05                   
G32 2020 07 28 14 00 00 3.241524100304D-04 5.911715561524D-12 0.000000000000D+00
     8.400000000000D+01-1.990625000000D+01 4.608049053445D-09-2.692796918989D+00
    -9.555369615555D-07 4.086776520126D-03 8.072704076767D-06 5.153734457016D+03
     2.232000000000D+05 1.490116119385D-08-2.256314191354D+00-1.490116119385D-08
     9.568068952134D-01 2.203750000000D+02-2.432070241716D+00-7.982832173070D-09
    -2.260808484866D-10 1.000000000000D+00 2.116000000000D+03 0.000000000000D+00
     2.000000000000D+00 0.000000000000D+00 4.656612873077D-10 8.400000000000D+01
     2.159400000000D+05                   
G20 2020 07 28 14 00 00 5.271900445223D-04-1.136868377216D-13 0.000000000000D+00
     7.100000000000D+01-9.437500000000D+00 5.308435468976D-09 2.397668516175D-01
    -7.711350917816D-07 5.380075774156D-03 7.566064596176D-06 5.153654134750D+03
     2.232000000000D+05 1.173466444016D-07 2.851803228823D+00-3.352761268616D-08
     9.350036533980D-01 2.228437500000D+02 2.684071412862D+00-8.506425785981D-09
     1.846505448544D-10 1.000000000000D+00 2.116000000000D+03 0.000000000000D+00
     2.000000000000D+00 0.000000000000D+00-8.847564458847D-09 7.100000000000D+01
     2.159400000000D+05                   
G18 2020 07 28 14 00 00 2.570948563516D-04 8.867573342286D-12 0.000000000000D+00
     8.800000000000D+01-4.750000000000D+01 4.348395421516D-09 1.290788117135D+00
    -2.540647983551D-06 8.161414880306D-04 9.642913937569D-06 5.153724065781D+03
     2.232000000000D+05-3.725290298462D-08 1.963959457812D+00-4.097819328308D-08
     9.644124848853D-01 1.906250000000D+02 2.627851437429D+00-8.022833952737D-09
     5.250218662600D-11 1.000000000000D+00 2.116000000000D+03 0.000000000000D+00
     2.000000000000D+00 0.000000000000D+00-7.916241884232D-09 8.560000000000D+02
     2.159400000000D+05                   
G10 2020 07 28 14 00 00-4.121903330088D-04-1.045918907039D-11 0.000000000000D+00
     1.500000000000D+01-8.250000000000D+00 4.517330953746D-09-1.288987117224D+00
    -4.991888999939D-07 5.736528546549D-03 7.659196853638D-06 5.153661685944D+03
     2.232000000000D+05 1.564621925354D-07 2.984657726037D+00-1.359730958939D-07
     9.665621757086D-01 2.379062500000D+02-2.647912156558D+00-7.968188775465D-09
     2.010798055840D-10 1.000000000000D+00 2.116000000000D+03 0.000000000000D+00
     2.000000000000D+00 0.000000000000D+00 2.328306436539D-09 1.500000000000D+01
     2.159400000000D+05                   
